[{"OBJECT_NAME":"COSMOS 2503","OBJECT_ID":"2015-009A","EPOCH":"2026-03-09T16:42:37.703808","MEAN_MOTION":15.06275973,"ECCENTRICITY":0.00153206,"INCLINATION":97.8437,"RA_OF_ASC_NODE":123.7175,"ARG_OF_PERICENTER":225.745,"MEAN_ANOMALY":134.252,"EPHEMERIS_TYPE":0,"CLASSIFICATION_TYPE":"U","NORAD_CAT_ID":40420,"ELEMENT_SET_NO":999,"REV_AT_EPOCH":60395,"BSTAR":0.00019589832,"MEAN_MOTION_DOT":2.817e-5,"MEAN_MOTION_DDOT":0},{"OBJECT_NAME":"STARLINK-5046","OBJECT_ID":"2022-119G","EPOCH":"2026-03-09T22:29:04.526880","MEAN_MOTION":15.08834183,"ECCENTRICITY":0.00014269,"INCLINATION":53.2193,"RA_OF_ASC_NODE":322.8882,"ARG_OF_PERICENTER":101.1057,"MEAN_ANOMALY":259.0096,"EPHEMERIS_TYPE":0,"CLASSIFICATION_TYPE":"U","NORAD_CAT_ID":53892,"ELEMENT_SET_NO":999,"REV_AT_EPOCH":19172,"BSTAR":1.2342085e-5,"MEAN_MOTION_DOT":-9.2e-7,"MEAN_MOTION_DDOT":0}]
